{
  "norad_id": 65081,
  "name": "STARLINK-34561",
  "history": [
    {
      "epoch": "2026-03-28T20:51:08.912160Z",
      "apogee_km": 475.9941360979283,
      "perigee_km": 474.38483797224217,
      "latitude_deg": -2.9409820554114313e-05,
      "longitude_deg": 155.8951274303739,
      "height_km": 475.78615670921477,
      "semi_major_axis_km": 6853.326487035085,
      "eccentricity": 0.00011741,
      "inclination_deg": 53.1584,
      "raan_deg": 294.9654,
      "arg_perigee_deg": 67.9949,
      "mean_anomaly_deg": 292.1176,
      "mean_motion_rev_day": 15.30208568
    }
  ]
}